1 45210U 20012AJ  23333.48140571 -.00001221  00000-0 -63095-4 0  9996
2 45210  53.0514 158.0552 0001416 103.6850 256.4296 15.06399030209723
1 45210U 20012AJ  23333.74679064  .00000128  00000-0  27479-4 0  9998
2 45210  53.0515 156.8649 0001414 101.3771 258.7376 15.06403177208936
1 45210U 20012AJ  23334.80835167  .00000806  00000-0  73049-4 0  9991
2 45210  53.0523 152.1008 0001431  96.4622 263.6530 15.06389823209097
1 45210U 20012AJ  23335.80355086  .00001848  00000-0  14289-3 0  9996
2 45210  53.0512 147.6282 0001362 103.6410 256.4731 15.06403052210071
1 45210U 20012AJ  23335.80355086  .00001848  00000-0  14289-3 0  9996
2 45210  53.0512 147.6282 0001362 103.6410 256.4731 15.06403052209248
1 45210U 20012AJ  23336.73241177  .00002366  00000-0  17767-3 0  9994
2 45210  53.0526 143.4550 0001497  80.9719 279.1440 15.06398130210211
1 45210U 20012AJ  23336.73241177  .00002366  00000-0  17767-3 0  9994
2 45210  53.0526 143.4550 0001497  80.9719 279.1440 15.06398130209387
1 45210U 20012AJ  23337.59492262 -.00001982  00000-0 -11420-3 0  9997
2 45210  53.0526 139.5927 0001214  71.3405 288.7716 15.06398964210349
1 45210U 20012AJ  23338.45743595  .00000566  00000-0  56865-4 0  9999
2 45210  53.0534 135.7234 0001356  91.0731 269.0413 15.06393420210477
1 45210U 20012AJ  23338.45743595  .00000566  00000-0  56865-4 0  9999
2 45210  53.0534 135.7234 0001356  91.0731 269.0413 15.06393420209644
1 45210U 20012AJ  23339.45263650  .00001429  00000-0  11482-3 0  9993
2 45210  53.0534 131.2514 0001329  94.1341 265.9800 15.06396230210624
1 45210U 20012AJ  23340.38149487  .00000259  00000-0  36257-4 0  9996
2 45210  53.0536 127.0801 0001346  94.6172 265.4971 15.06395940210760
1 45210U 20012AJ  23340.38149487  .00000259  00000-0  36257-4 0  9996
2 45210  53.0536 127.0801 0001346  94.6172 265.4971 15.06395940209937
1 45210U 20012AJ  23340.84592722 -.00000336  00000-0 -36275-5 0  9990
2 45210  53.0524 124.9969 0001527  65.0382 295.0766 15.06392815210831
1 45210U 20012AJ  23341.77478046  .00000155  00000-0  29319-4 0  9992
2 45210  53.0543 120.8259 0001339  91.5043 268.6099 15.06396396210145
1 45210U 20012AJ  23342.50459476  .00000911  00000-0  80062-4 0  9992
2 45210  53.0532 117.5491 0001271  89.6039 270.5096 15.06396037211087
1 45210U 20012AJ  23343.36709897  .00000886  00000-0  78371-4 0  9993
2 45210  53.0531 113.6764 0001346  91.2919 268.8224 15.06401796210389
1 45210U 20012AJ  23343.56613704  .00000870  00000-0  77267-4 0  9992
2 45210  53.0532 112.7836 0001239  90.3906 269.7224 15.06404140211249
1 45210U 20012AJ  23344.49499788 -.00000506  00000-0 -15103-4 0  9998
2 45210  53.0536 108.6148 0001205  77.4197 282.6927 15.06398387210556
1 45210U 20012AJ  23344.56134250 -.00000485  00000-0 -13650-4 0  9997
2 45210  53.0541 108.3159 0001128  82.0235 278.0882 15.06401381211391
1 45210U 20012AJ  23344.62769076 -.00000474  00000-0 -12954-4 0  9998
2 45210  53.0538 108.0189 0001158  81.5234 278.5887 15.06398892211407
1 45210U 20012AJ  23345.55654404 -.00000070  00000-0  14202-4 0  9998
2 45210  53.0538 103.8504 0001178  76.2586 283.8534 15.06399635211543
1 45210U 20012AJ  23345.62288874  .00000094  00000-0  25218-4 0  9994
2 45210  53.0539 103.5517 0001192  82.9982 277.1142 15.06401946211556
1 45210U 20012AJ  23345.62288874  .00000094  00000-0  25218-4 0  9994
2 45210  53.0539 103.5517 0001192  82.9982 277.1142 15.06401946210724
1 45210U 20012AJ  23346.48540730 -.00000362  00000-0 -54377-5 0  9990
2 45210  53.0552  99.6784 0001312  91.1904 268.9235 15.06390200210855
1 45210U 20012AJ  23346.55175373 -.00000256  00000-0  16841-5 0  9990
2 45210  53.0548  99.3793 0001305  87.3631 272.7507 15.06390860211693
1 45210U 20012AJ  23347.48060538  .00000425  00000-0  47454-4 0  9999
2 45210  53.0546  95.2080 0001329  91.9888 268.1253 15.06397465211006
1 45210U 20012AJ  23347.61329710  .00000766  00000-0  70291-4 0  9997
2 45210  53.0545  94.6126 0001346  87.1875 272.9268 15.06400026211851
1 45210U 20012AJ  23348.47581289  .00000245  00000-0  35359-4 0  9991
2 45210  53.0541  90.7432 0001294  79.2498 280.8636 15.06393831211154
1 45210U 20012AJ  23348.54215946  .00000337  00000-0  41552-4 0  9997
2 45210  53.0540  90.4454 0001315  78.3286 281.7850 15.06394407211993
1 45210U 20012AJ  23348.60850463  .00000581  00000-0  57870-4 0  9994
2 45210  53.0543  90.1469 0001335  80.7679 279.3461 15.06396263212000
1 45210U 20012AJ  23349.47099880  .00001325  00000-0  10777-3 0  9999
2 45210  53.0546  86.2748 0001380  77.3618 282.7525 15.06411609211307
1 45210U 20012AJ  23349.53734425  .00001492  00000-0  11903-3 0  9994
2 45210  53.0545  85.9771 0001411  75.6533 284.4613 15.06412881212143
1 45210U 20012AJ  23350.46621459 -.00001034  00000-0 -50554-4 0  9990
2 45210  53.0542  81.8070 0001236 101.4418 258.6710 15.06395767211459
1 45210U 20012AJ  23350.53256358 -.00001274  00000-0 -66693-4 0  9997
2 45210  53.0543  81.5123 0001226 100.6745 259.4382 15.06393986212297
1 45210U 20012AJ  23351.52775417 -.00000993  00000-0 -47737-4 0  9994
2 45210  53.0549  77.0425 0001256  84.6478 275.4654 15.06412317212442
1 45210U 20012AJ  23351.52775417 -.00000993  00000-0 -47737-4 0  9994
2 45210  53.0549  77.0425 0001256  84.6478 275.4654 15.06412317211610
1 45210U 20012AJ  23352.45662086  .00001204  00000-0  99742-4 0  9991
2 45210  53.0567  72.8746 0001570 104.2242 255.8922 15.06390045212586
1 45210U 20012AJ  23352.45662086  .00001204  00000-0  99742-4 0  9991
2 45210  53.0567  72.8746 0001570 104.2242 255.8922 15.06390045211754
1 45210U 20012AJ  23353.45182728 -.00000469  00000-0 -12619-4 0  9994
2 45210  53.0562  68.4057 0001629 104.9344 255.1826 15.06395103212735
1 45210U 20012AJ  23354.44704623 -.00000900  00000-0 -41571-4 0  9997
2 45210  53.0555  63.9377 0001511  99.0537 261.0623 15.06381980212054
1 45210U 20012AJ  23354.51339308 -.00000746  00000-0 -31196-4 0  9999
2 45210  53.0550  63.6377 0001439  80.1544 279.9607 15.06383443212892
1 45210U 20012AJ  23354.97781365  .00000318  00000-0  40247-4 0  9993
2 45210  53.0545  61.5531 0001252  97.3728 262.7404 15.06396409212130
1 45210U 20012AJ  23355.50858099  .00007948  00000-0  55206-3 0  9998
2 45210  53.0552  59.1735 0001559  93.6390 266.4778 15.06385788213045
1 45210U 20012AJ  23356.43745639 -.00000078  00000-0  13655-4 0  9997
2 45210  53.0542  54.9979 0001353 117.8421 242.2705 15.06384419213180
1 45210U 20012AJ  23356.43745639 -.00000078  00000-0  13655-4 0  9997
2 45210  53.0542  54.9979 0001353 117.8421 242.2705 15.06384419212358
1 45210U 20012AJ  23357.43264355  .00003283  00000-0  23910-3 0  9993
2 45210  53.0546  50.5357 0001522  79.6163 280.4997 15.06413656212500
1 45210U 20012AJ  23357.56533256  .00003822  00000-0  27516-3 0  9991
2 45210  53.0537  49.9356 0001350  80.3944 279.7197 15.06420616213357
1 45210U 20012AJ  23358.16247147  .00000581  00000-0  57904-4 0  9993
2 45210  53.0553  47.2610 0001410  45.1717 314.9386 15.06389395212611
1 45210U 20012AJ  23358.56054652  .00004275  00000-0  30564-3 0  9990
2 45210  53.0537  45.4686 0001421  66.9933 293.1206 15.06405220213503
1 45210U 20012AJ  23358.56054652  .00004275  00000-0  30564-3 0  9990
2 45210  53.0537  45.4686 0001421  66.9933 293.1206 15.06405220212670
1 45210U 20012AJ  23359.55573923  .00017988  00000-0  12223-2 0  9993
2 45210  53.0537  41.0019 0001370  75.4830 284.6311 15.06432814213656
1 45210U 20012AJ  23359.55573923  .00017988  00000-0  12223-2 0  9993
2 45210  53.0537  41.0019 0001370  75.4830 284.6311 15.06432814212824
1 45210U 20012AJ  23360.15286903 -.00004095  00000-0 -25625-3 0  9998
2 45210  53.0541  38.3223 0001297  96.6717 263.4419 15.06389397212913
1 45210U 20012AJ  23360.41825742  .00000743  00000-0  68810-4 0  9995
2 45210  53.0542  37.1319 0001412  97.5681 262.5468 15.06390463213782
1 45210U 20012AJ  23360.94903605  .00013063  00000-0  89426-3 0  9992
2 45210  53.0535  34.7484 0001387  98.3387 261.7759 15.06397541213039
1 45210U 20012AJ  23361.47980791  .00013038  00000-0  89231-3 0  9998
2 45210  53.0537  32.3653 0001435  98.1554 261.9598 15.06411395213948
1 45210U 20012AJ  23362.07693483  .00004712  00000-0  33500-3 0  9991
2 45210  53.0536  29.6854 0002003  93.1704 266.9514 15.06399386213200
1 45210U 20012AJ  23362.47501892  .00003739  00000-0  26983-3 0  9992
2 45210  53.0532  27.8965 0001522  96.3502 263.7660 15.06391998214091
1 45210U 20012AJ  23362.47501892  .00003739  00000-0  26983-3 0  9992
2 45210  53.0532  27.8965 0001522  96.3502 263.7660 15.06391998213269
1 45210U 20012AJ  23363.33752660  .00010187  00000-0  70163-3 0  9993
2 45210  53.0539  24.0249 0001508  86.7492 273.3670 15.06409548214221
1 45210U 20012AJ  23363.33752660  .00010187  00000-0  70163-3 0  9993
2 45210  53.0539  24.0249 0001508  86.7492 273.3670 15.06409548213398
1 45210U 20012AJ  23364.46542684  .00001134  00000-0  95031-4 0  9995
2 45210  53.0540  18.9612 0001498  91.1527 268.9634 15.06395896214394
1 45210U 20012AJ  23364.46542684  .00001134  00000-0  95031-4 0  9995
2 45210  53.0540  18.9612 0001498  91.1527 268.9634 15.06395896213562
